CCSDS_OMM_VERS = 2.0
CREATION_DATE  = 
ORIGINATOR     = 

OBJECT_NAME    = SL-14 R/B
OBJECT_ID      = 1991-042B
CENTER_NAME    = EARTH
REF_FRAME      = TEME
TIME_SYSTEM    = UTC
MEAN_ELEMENT_THEORY = SGP/SGP4

EPOCH          = 2025-12-31T06:50:33.383040
MEAN_MOTION    = 14.81758843
ECCENTRICITY   = .0018541
INCLINATION    = 82.4936
RA_OF_ASC_NODE = 284.3343
ARG_OF_PERICENTER = 104.4572
MEAN_ANOMALY   = 255.8701

EPHEMERIS_TYPE = 0
CLASSIFICATION_TYPE = U
NORAD_CAT_ID   = 21423
ELEMENT_SET_NO = 999
REV_AT_EPOCH   = 84294
BSTAR          = .99282E-4
MEAN_MOTION_DOT = .808E-5
MEAN_MOTION_DDOT = 0

CCSDS_OMM_VERS = 2.0
CREATION_DATE  = 
ORIGINATOR     = 

OBJECT_NAME    = ERS-1
OBJECT_ID      = 1991-050A
CENTER_NAME    = EARTH
REF_FRAME      = TEME
TIME_SYSTEM    = UTC
MEAN_ELEMENT_THEORY = SGP/SGP4

EPOCH          = 2025-12-31T15:28:34.779072
MEAN_MOTION    = 14.39382255
ECCENTRICITY   = .00327217
INCLINATION    = 98.7898
RA_OF_ASC_NODE = 17.1719
ARG_OF_PERICENTER = 45.5245
MEAN_ANOMALY   = 314.8609

EPHEMERIS_TYPE = 0
CLASSIFICATION_TYPE = U
NORAD_CAT_ID   = 21574
ELEMENT_SET_NO = 999
REV_AT_EPOCH   = 80594
BSTAR          = .22948279E-3
MEAN_MOTION_DOT = .672E-5
MEAN_MOTION_DDOT = 0

CCSDS_OMM_VERS = 2.0
CREATION_DATE  = 
ORIGINATOR     = 

OBJECT_NAME    = ARIANE 40 R/B
OBJECT_ID      = 1991-050F
CENTER_NAME    = EARTH
REF_FRAME      = TEME
TIME_SYSTEM    = UTC
MEAN_ELEMENT_THEORY = SGP/SGP4

EPOCH          = 2025-12-31T13:55:20.459424
MEAN_MOTION    = 14.42831308
ECCENTRICITY   = .00019572
INCLINATION    = 98.2140
RA_OF_ASC_NODE = 55.3284
ARG_OF_PERICENTER = 284.3604
MEAN_ANOMALY   = 75.7369

EPHEMERIS_TYPE = 0
CLASSIFICATION_TYPE = U
NORAD_CAT_ID   = 21610
ELEMENT_SET_NO = 999
REV_AT_EPOCH   = 80917
BSTAR          = .21918706E-3
MEAN_MOTION_DOT = .689E-5
MEAN_MOTION_DDOT = 0

CCSDS_OMM_VERS = 2.0
CREATION_DATE  = 
ORIGINATOR     = 

OBJECT_NAME    = INTERCOSMOS 25
OBJECT_ID      = 1991-086A
CENTER_NAME    = EARTH
REF_FRAME      = TEME
TIME_SYSTEM    = UTC
MEAN_ELEMENT_THEORY = SGP/SGP4

EPOCH          = 2025-12-31T09:02:32.273952
MEAN_MOTION    = 12.11806501
ECCENTRICITY   = .1486124
INCLINATION    = 82.6077
RA_OF_ASC_NODE = 351.3025
ARG_OF_PERICENTER = 264.1994
MEAN_ANOMALY   = 78.8382

EPHEMERIS_TYPE = 0
CLASSIFICATION_TYPE = U
NORAD_CAT_ID   = 21819
ELEMENT_SET_NO = 999
REV_AT_EPOCH   = 48841
BSTAR          = .51822624E-3
MEAN_MOTION_DOT = .2602E-4
MEAN_MOTION_DDOT = 0

CCSDS_OMM_VERS = 2.0
CREATION_DATE  = 
ORIGINATOR     = 

OBJECT_NAME    = SL-8 R/B
OBJECT_ID      = 1992-008B
CENTER_NAME    = EARTH
REF_FRAME      = TEME
TIME_SYSTEM    = UTC
MEAN_ELEMENT_THEORY = SGP/SGP4

EPOCH          = 2025-12-31T09:04:06.555360
MEAN_MOTION    = 13.75963507
ECCENTRICITY   = .00340172
INCLINATION    = 82.9279
RA_OF_ASC_NODE = 318.5835
ARG_OF_PERICENTER = 327.6524
MEAN_ANOMALY   = 143.5923

EPHEMERIS_TYPE = 0
CLASSIFICATION_TYPE = U
NORAD_CAT_ID   = 21876
ELEMENT_SET_NO = 999
REV_AT_EPOCH   = 70002
BSTAR          = .15445396E-3
MEAN_MOTION_DOT = .165E-5
MEAN_MOTION_DDOT = 0

CCSDS_OMM_VERS = 2.0
CREATION_DATE  = 
ORIGINATOR     = 

OBJECT_NAME    = SL-8 R/B
OBJECT_ID      = 1992-020B
CENTER_NAME    = EARTH
REF_FRAME      = TEME
TIME_SYSTEM    = UTC
MEAN_ELEMENT_THEORY = SGP/SGP4

EPOCH          = 2025-12-31T14:36:17.786016
MEAN_MOTION    = 13.75532934
ECCENTRICITY   = .0029976
INCLINATION    = 82.9289
RA_OF_ASC_NODE = 204.3055
ARG_OF_PERICENTER = 126.4361
MEAN_ANOMALY   = 297.4552

EPHEMERIS_TYPE = 0
CLASSIFICATION_TYPE = U
NORAD_CAT_ID   = 21938
ELEMENT_SET_NO = 999
REV_AT_EPOCH   = 69177
BSTAR          = .23730375E-3
MEAN_MOTION_DOT = .245E-5
MEAN_MOTION_DDOT = 0

CCSDS_OMM_VERS = 2.0
CREATION_DATE  = 
ORIGINATOR     = 

OBJECT_NAME    = USA 81
OBJECT_ID      = 1992-023A
CENTER_NAME    = EARTH
REF_FRAME      = TEME
TIME_SYSTEM    = UTC
MEAN_ELEMENT_THEORY = SGP/SGP4

EPOCH          = 2025-12-31T13:07:24.646656
MEAN_MOTION    = 14.32335577
ECCENTRICITY   = .00010778
INCLINATION    = 85.0087
RA_OF_ASC_NODE = 170.7296
ARG_OF_PERICENTER = 100.7964
MEAN_ANOMALY   = 259.3350

EPHEMERIS_TYPE = 0
CLASSIFICATION_TYPE = U
NORAD_CAT_ID   = 21949
ELEMENT_SET_NO = 999
REV_AT_EPOCH   = 8503
BSTAR          = .14416424E-3
MEAN_MOTION_DOT = .409E-5
MEAN_MOTION_DDOT = 0

CCSDS_OMM_VERS = 2.0
CREATION_DATE  = 
ORIGINATOR     = 

OBJECT_NAME    = COSMOS 2219
OBJECT_ID      = 1992-076A
CENTER_NAME    = EARTH
REF_FRAME      = TEME
TIME_SYSTEM    = UTC
MEAN_ELEMENT_THEORY = SGP/SGP4

EPOCH          = 2025-12-31T14:41:15.825408
MEAN_MOTION    = 14.14074128
ECCENTRICITY   = .00198836
INCLINATION    = 71.0598
RA_OF_ASC_NODE = 160.3819
ARG_OF_PERICENTER = 300.8720
MEAN_ANOMALY   = 59.0447

EPHEMERIS_TYPE = 0
CLASSIFICATION_TYPE = U
NORAD_CAT_ID   = 22219
ELEMENT_SET_NO = 999
REV_AT_EPOCH   = 70875
BSTAR          = .25682494E-3
MEAN_MOTION_DOT = .442E-5
MEAN_MOTION_DDOT = 0

CCSDS_OMM_VERS = 2.0
CREATION_DATE  = 
ORIGINATOR     = 

OBJECT_NAME    = SL-16 R/B
OBJECT_ID      = 1992-076B
CENTER_NAME    = EARTH
REF_FRAME      = TEME
TIME_SYSTEM    = UTC
MEAN_ELEMENT_THEORY = SGP/SGP4

EPOCH          = 2025-12-31T09:00:40.991616
MEAN_MOTION    = 14.16845793
ECCENTRICITY   = .00138919
INCLINATION    = 71.0012
RA_OF_ASC_NODE = 332.2752
ARG_OF_PERICENTER = 209.0215
MEAN_ANOMALY   = 312.8592

EPHEMERIS_TYPE = 0
CLASSIFICATION_TYPE = U
NORAD_CAT_ID   = 22220
ELEMENT_SET_NO = 999
REV_AT_EPOCH   = 71215
BSTAR          = -.38641872E-4
MEAN_MOTION_DOT = -.125E-5
MEAN_MOTION_DDOT = 0

CCSDS_OMM_VERS = 2.0
CREATION_DATE  = 
ORIGINATOR     = 

OBJECT_NAME    = COSMOS 2221
OBJECT_ID      = 1992-080A
CENTER_NAME    = EARTH
REF_FRAME      = TEME
TIME_SYSTEM    = UTC
MEAN_ELEMENT_THEORY = SGP/SGP4

EPOCH          = 2025-12-31T09:57:23.529024
MEAN_MOTION    = 14.95848563
ECCENTRICITY   = .00161815
INCLINATION    = 82.5041
RA_OF_ASC_NODE = 344.4485
ARG_OF_PERICENTER = 64.9149
MEAN_ANOMALY   = 295.3750

EPHEMERIS_TYPE = 0
CLASSIFICATION_TYPE = U
NORAD_CAT_ID   = 22236
ELEMENT_SET_NO = 999
REV_AT_EPOCH   = 77058
BSTAR          = .37763251E-3
MEAN_MOTION_DOT = .4254E-4
MEAN_MOTION_DDOT = 0

CCSDS_OMM_VERS = 2.0
CREATION_DATE  = 
ORIGINATOR     = 

OBJECT_NAME    = SL-16 R/B
OBJECT_ID      = 1992-093B
CENTER_NAME    = EARTH
REF_FRAME      = TEME
TIME_SYSTEM    = UTC
MEAN_ELEMENT_THEORY = SGP/SGP4

EPOCH          = 2025-12-31T14:43:01.043328
MEAN_MOTION    = 14.15434749
ECCENTRICITY   = .00028357
INCLINATION    = 71.0213
RA_OF_ASC_NODE = 147.1773
ARG_OF_PERICENTER = 16.0224
MEAN_ANOMALY   = 344.0988

EPHEMERIS_TYPE = 0
CLASSIFICATION_TYPE = U
NORAD_CAT_ID   = 22285
ELEMENT_SET_NO = 999
REV_AT_EPOCH   = 70352
BSTAR          = -.52169269E-4
MEAN_MOTION_DOT = -.149E-5
MEAN_MOTION_DDOT = 0

CCSDS_OMM_VERS = 2.0
CREATION_DATE  = 
ORIGINATOR     = 

OBJECT_NAME    = COSMOS 2228
OBJECT_ID      = 1992-094A
CENTER_NAME    = EARTH
REF_FRAME      = TEME
TIME_SYSTEM    = UTC
MEAN_ELEMENT_THEORY = SGP/SGP4

EPOCH          = 2025-12-31T14:37:39.741600
MEAN_MOTION    = 14.96831759
ECCENTRICITY   = .00182507
INCLINATION    = 82.5189
RA_OF_ASC_NODE = 302.4792
ARG_OF_PERICENTER = 165.4275
MEAN_ANOMALY   = 194.7477

EPHEMERIS_TYPE = 0
CLASSIFICATION_TYPE = U
NORAD_CAT_ID   = 22286
ELEMENT_SET_NO = 999
REV_AT_EPOCH   = 76587
BSTAR          = .34567325E-3
MEAN_MOTION_DOT = .3998E-4
MEAN_MOTION_DDOT = 0

