SL-14 R/B               
1 21423U 91042B   25365.28510860  .00000808  00000+0  99282-4 0  9998
2 21423  82.4936 284.3343 0018541 104.4572 255.8701 14.81758843842949
ERS-1                   
1 21574U 91050A   25365.64484698  .00000672  00000+0  22948-3 0  9996
2 21574  98.7898  17.1719 0032721  45.5245 314.8609 14.39382255805945
ARIANE 40 R/B           
1 21610U 91050F   25365.58009791  .00000689  00000+0  21919-3 0  9992
2 21610  98.2140  55.3284 0001957 284.3604  75.7369 14.42831308809178
INTERCOSMOS 25          
1 21819U 91086A   25365.37676243  .00002602  00000+0  51823-3 0  9995
2 21819  82.6077 351.3025 1486124 264.1994  78.8382 12.11806501488419
SL-8 R/B                
1 21876U 92008B   25365.37785365  .00000165  00000+0  15445-3 0  9991
2 21876  82.9279 318.5835 0034017 327.6524 143.5923 13.75963507700022
SL-8 R/B                
1 21938U 92020B   25365.60853919  .00000245  00000+0  23730-3 0  9996
2 21938  82.9289 204.3055 0029976 126.4361 297.4552 13.75532934691774
USA 81                  
1 21949U 92023A   25365.54681304  .00000409  00000+0  14416-3 0  9994
2 21949  85.0087 170.7296 0001077 100.7964 259.3350 14.32335577 85032
COSMOS 2219             
1 22219U 92076A   25365.61198872  .00000442  00000+0  25682-3 0  9998
2 22219  71.0598 160.3819 0019883 300.8720  59.0447 14.14074128708753
SL-16 R/B               
1 22220U 92076B   25365.37547444 -.00000125  00000+0 -38642-4 0  9997
2 22220  71.0012 332.2752 0013891 209.0215 312.8592 14.16845793712150
COSMOS 2221             
1 22236U 92080A   25365.41485566  .00004254  00000+0  37763-3 0  9997
2 22236  82.5041 344.4485 0016181  64.9149 295.3750 14.95848563770580
SL-16 R/B               
1 22285U 92093B   25365.61320652 -.00000149  00000+0 -52169-4 0  9990
2 22285  71.0213 147.1773 0002835  16.0224 344.0988 14.15434749703523
COSMOS 2228             
1 22286U 92094A   25365.60948775  .00003998  00000+0  34567-3 0  9997
2 22286  82.5189 302.4792 0018250 165.4275 194.7477 14.96831759765873
